{
  "type": "FeatureCollection",
  "features": [
    {
      "type": "Feature",
      "properties": {
        "norad_id": 41773,
        "name": "SKYSAT-C2",
        "group": "resource",
        "lat": 72.26660710399416,
        "lon": -2.9528094232209745,
        "alt_km": 445.76657351518315,
        "timestamp": "2025-12-21T14:40:47.568150+00:00",
        "meta_object_name": "SKYSAT-C2",
        "meta_object_id": "2016-058D",
        "meta_epoch": "2025-12-21T01:51:51.666048",
        "meta_mean_motion": 15.37443909,
        "meta_eccentricity": 0.00032987,
        "meta_inclination": 97.0347,
        "meta_ra_of_asc_node": 19.2514,
        "meta_arg_of_pericenter": 10.7695,
        "meta_mean_anomaly": 349.3621,
        "meta_ephemeris_type": 0,
        "meta_classification_type": "U",
        "meta_norad_cat_id": 41773,
        "meta_element_set_no": 999,
        "meta_rev_at_epoch": 51764,
        "meta_bstar": 0.00022753944,
        "meta_mean_motion_dot": 8.279e-05,
        "meta_mean_motion_ddot": 0,
        "tle_line1": "1 41773U 16058D   25355.07768132  .00008279  00000+0  22754-3 0  9994",
        "tle_line2": "2 41773  97.0347  19.2514 0003298  10.7695 349.3621 15.37443909517642"
      },
      "geometry": {
        "type": "Point",
        "coordinates": [
          -2.9528094232209745,
          72.26660710399416
        ]
      }
    },
    {
      "type": "Feature",
      "properties": {
        "norad_id": 41774,
        "name": "SKYSAT-C3",
        "group": "resource",
        "lat": 48.17967198274691,
        "lon": -143.24286835195144,
        "alt_km": 426.9073100646674,
        "timestamp": "2025-12-21T14:40:47.568159+00:00",
        "meta_object_name": "SKYSAT-C3",
        "meta_object_id": "2016-058E",
        "meta_epoch": "2025-12-20T08:34:23.687904",
        "meta_mean_motion": 15.44652608,
        "meta_eccentricity": 0.0001932,
        "meta_inclination": 96.9286,
        "meta_ra_of_asc_node": 27.7493,
        "meta_arg_of_pericenter": 107.595,
        "meta_mean_anomaly": 252.5511,
        "meta_ephemeris_type": 0,
        "meta_classification_type": "U",
        "meta_norad_cat_id": 41774,
        "meta_element_set_no": 999,
        "meta_rev_at_epoch": 51843,
        "meta_bstar": 0.0002841356,
        "meta_mean_motion_dot": 0.00013163,
        "meta_mean_motion_ddot": 0,
        "tle_line1": "1 41774U 16058E   25354.35721861  .00013163  00000+0  28414-3 0  9990",
        "tle_line2": "2 41774  96.9286  27.7493 0001932 107.5950 252.5511 15.44652608518432"
      },
      "geometry": {
        "type": "Point",
        "coordinates": [
          -143.24286835195144,
          48.17967198274691
        ]
      }
    },
    {
      "type": "Feature",
      "properties": {
        "norad_id": 41785,
        "name": "ALSAT 1B",
        "group": "resource",
        "lat": -19.129325920315694,
        "lon": -175.69948523008154,
        "alt_km": 663.4313906775287,
        "timestamp": "2025-12-21T14:40:47.568170+00:00",
        "meta_object_name": "ALSAT 1B",
        "meta_object_id": "2016-059C",
        "meta_epoch": "2025-12-21T07:15:12.538944",
        "meta_mean_motion": 14.72083897,
        "meta_eccentricity": 0.00108044,
        "meta_inclination": 97.7805,
        "meta_ra_of_asc_node": 6.7227,
        "meta_arg_of_pericenter": 79.4528,
        "meta_mean_anomaly": 280.7897,
        "meta_ephemeris_type": 0,
        "meta_classification_type": "U",
        "meta_norad_cat_id": 41785,
        "meta_element_set_no": 999,
        "meta_rev_at_epoch": 49440,
        "meta_bstar": 5.9582079e-05,
        "meta_mean_motion_dot": 3.28e-06,
        "meta_mean_motion_ddot": 0,
        "tle_line1": "1 41785U 16059C   25355.30222846  .00000328  00000+0  59582-4 0  9998",
        "tle_line2": "2 41785  97.7805   6.7227 0010804  79.4528 280.7897 14.72083897494406"
      },
      "geometry": {
        "type": "Point",
        "coordinates": [
          -175.69948523008154,
          -19.129325920315694
        ]
      }
    },
    {
      "type": "Feature",
      "properties": {
        "norad_id": 41787,
        "name": "PATHFINDER 1",
        "group": "resource",
        "lat": 52.7316204551176,
        "lon": -171.6298459051578,
        "alt_km": 658.2551068093135,
        "timestamp": "2025-12-21T14:40:47.568180+00:00",
        "meta_object_name": "PATHFINDER 1",
        "meta_object_id": "2016-059E",
        "meta_epoch": "2025-12-20T21:44:31.538112",
        "meta_mean_motion": 14.67334172,
        "meta_eccentricity": 0.0029819,
        "meta_inclination": 97.8136,
        "meta_ra_of_asc_node": 357.3006,
        "meta_arg_of_pericenter": 56.3339,
        "meta_mean_anomaly": 304.0703,
        "meta_ephemeris_type": 0,
        "meta_classification_type": "U",
        "meta_norad_cat_id": 41787,
        "meta_element_set_no": 999,
        "meta_rev_at_epoch": 49356,
        "meta_bstar": 0.00010532,
        "meta_mean_motion_dot": 5.52e-06,
        "meta_mean_motion_ddot": 0,
        "tle_line1": "1 41787U 16059E   25354.90592058  .00000552  00000+0  10532-3 0  9990",
        "tle_line2": "2 41787  97.8136 357.3006 0029819  56.3339 304.0703 14.67334172493567"
      },
      "geometry": {
        "type": "Point",
        "coordinates": [
          -171.6298459051578,
          52.7316204551176
        ]
      }
    },
    {
      "type": "Feature",
      "properties": {
        "norad_id": 41790,
        "name": "SCATSAT 1",
        "group": "resource",
        "lat": 49.231963126345754,
        "lon": -118.04602510935212,
        "alt_km": 593.810568584131,
        "timestamp": "2025-12-21T14:40:47.568191+00:00",
        "meta_object_name": "SCATSAT 1",
        "meta_object_id": "2016-059H",
        "meta_epoch": "2025-12-21T02:43:55.700832",
        "meta_mean_motion": 14.78961089,
        "meta_eccentricity": 0.00564593,
        "meta_inclination": 98.1451,
        "meta_ra_of_asc_node": 51.8883,
        "meta_arg_of_pericenter": 101.6086,
        "meta_mean_anomaly": 259.147,
        "meta_ephemeris_type": 0,
        "meta_classification_type": "U",
        "meta_norad_cat_id": 41790,
        "meta_element_set_no": 999,
        "meta_rev_at_epoch": 7526,
        "meta_bstar": 0.00013897435,
        "meta_mean_motion_dot": 9.97e-06,
        "meta_mean_motion_ddot": 0,
        "tle_line1": "1 41790U 16059H   25355.11383913  .00000997  00000+0  13897-3 0  9996",
        "tle_line2": "2 41790  98.1451  51.8883 0056459 101.6086 259.1470 14.78961089 75266"
      },
      "geometry": {
        "type": "Point",
        "coordinates": [
          -118.04602510935212,
          49.231963126345754
        ]
      }
    },
    {
      "type": "Feature",
      "properties": {
        "norad_id": 41875,
        "name": "GOKTURK 1A",
        "group": "resource",
        "lat": 57.659801393612845,
        "lon": -125.212372221314,
        "alt_km": 677.7891851611193,
        "timestamp": "2025-12-21T14:40:47.568201+00:00",
        "meta_object_name": "GOKTURK 1A",
        "meta_object_id": "2016-073A",
        "meta_epoch": "2025-12-21T06:12:16.571232",
        "meta_mean_motion": 14.62788161,
        "meta_eccentricity": 0.00012823,
        "meta_inclination": 98.1435,
        "meta_ra_of_asc_node": 247.51,
        "meta_arg_of_pericenter": 81.1262,
        "meta_mean_anomaly": 279.0085,
        "meta_ephemeris_type": 0,
        "meta_classification_type": "U",
        "meta_norad_cat_id": 41875,
        "meta_element_set_no": 999,
        "meta_rev_at_epoch": 48281,
        "meta_bstar": 5.5973427e-05,
        "meta_mean_motion_dot": 2.39e-06,
        "meta_mean_motion_ddot": 0,
        "tle_line1": "1 41875U 16073A   25355.25852513  .00000239  00000+0  55973-4 0  9999",
        "tle_line2": "2 41875  98.1435 247.5100 0001282  81.1262 279.0085 14.62788161482817"
      },
      "geometry": {
        "type": "Point",
        "coordinates": [
          -125.212372221314,
          57.659801393612845
        ]
      }
    },
    {
      "type": "Feature",
      "properties": {
        "norad_id": 41877,
        "name": "RESOURCESAT-2A",
        "group": "resource",
        "lat": -53.595309575219034,
        "lon": -126.67548530683504,
        "alt_km": 825.9365551053706,
        "timestamp": "2025-12-21T14:40:47.568211+00:00",
        "meta_object_name": "RESOURCESAT-2A",
        "meta_object_id": "2016-074A",
        "meta_epoch": "2025-12-21T05:08:03.768000",
        "meta_mean_motion": 14.21602054,
        "meta_eccentricity": 0.00014324,
        "meta_inclination": 98.7753,
        "meta_ra_of_asc_node": 65.0208,
        "meta_arg_of_pericenter": 214.7204,
        "meta_mean_anomaly": 145.388,
        "meta_ephemeris_type": 0,
        "meta_classification_type": "U",
        "meta_norad_cat_id": 41877,
        "meta_element_set_no": 999,
        "meta_rev_at_epoch": 46901,
        "meta_bstar": -5.6814738e-05,
        "meta_mean_motion_dot": -1.69e-06,
        "meta_mean_motion_ddot": 0,
        "tle_line1": "1 41877U 16074A   25355.21393250 -.00000169  00000+0 -56815-4 0  9996",
        "tle_line2": "2 41877  98.7753  65.0208 0001432 214.7204 145.3880 14.21602054469013"
      },
      "geometry": {
        "type": "Point",
        "coordinates": [
          -126.67548530683504,
          -53.595309575219034
        ]
      }
    }
  ]
}